Street Address,County Name,City,Store Name,State,Zip_Code,Ownership Type
110 Columbus Drive,MOORE,ABERDEEN,"Aberdeen, NC",NC,28315,Company Owned
750 W Williams St,WAKE,APEX,Harris Teeter-Apex #58,NC,27502,Licensed
1201 Beaver Creek Commons Dr,WAKE,APEX,Super Target Apex ST-1932,NC,27502,Licensed
940 US Hwy 64,WAKE,APEX,Kroger-Apex #357,NC,27523,Licensed
15 McKenna Rd,BUNCOMBE,ARDEN,Target Asheville T-2011,NC,28704,Licensed
301 Long Shoals Rd,BUNCOMBE,ARDEN,Ingles-Arden #130,NC,28704,Licensed
115 River Hills Rd,BUNCOMBE,ASHEVILLE,Target Asheville T-1807,NC,28805,Licensed
29 Tunnel Rd,BUNCOMBE,ASHEVILLE,Ingles-Asheville #7,NC,28805,Licensed
1141 Tunnel Rd,BUNCOMBE,ASHEVILLE,Ingles-Asheville #4,NC,28805,Licensed
3 S Tunnel Road,BUNCOMBE,ASHEVILLE,Asheville Mall,NC,28805,Company Owned
"26 Carl Alwin Place, 10",BUNCOMBE,ASHEVILLE,Long Shoals Rd & I-26,NC,28803,Company Owned
1865 Hendersonville Rd,BUNCOMBE,ASHEVILLE,Ingles-Asheville #30,NC,28803,Licensed
"40 All Souls Crescent Street, Biltmore Village Center",BUNCOMBE,ASHEVILLE,Biltmore Village,NC,28803,Company Owned
1378 Hendersonville Road,BUNCOMBE,ASHEVILLE,Parkway Centre,NC,28803,Company Owned
915 Merrimon Ave,BUNCOMBE,ASHEVILLE,Ingles-Asheville#3,NC,28804,Licensed
575 New Leicester Hwy,BUNCOMBE,ASHEVILLE,Ingles-Asheville #62,NC,28806,Licensed
863 BREVARD RD.,BUNCOMBE,ASHEVILLE,Ingles Asheville 24,NC,28806,Licensed
"800 Brevard Road, N109",BUNCOMBE,ASHEVILLE,Asheville Outlets,NC,28806,Company Owned
62 Charlotte Street,BUNCOMBE,ASHEVILLE,Charlotte St.,NC,28801,Company Owned
550 HIGHWAY 9,BUNCOMBE,BLACK MOUNTAIN,Ingles-Black Mountain #8,NC,28711,Licensed
240 Shadowline Dr,WATAUGA,BOONE,Harris Teeter-Boone #165,NC,28607,Licensed
710 N Broad St,TRANSYLVANIA,BREVARD,Ingles-Brevard #67,NC,28712,Licensed
113 Main St,HARNETT,BUIES CREEK,Campbell University - Wiggins Hall,NC,27506,Licensed
2727 S Church St,ALAMANCE,BURLINGTON,Harris Teeter-Burlington # 345,NC,27215,Licensed
"1475 University Dr, Colonial Mall",ALAMANCE,BURLINGTON,Target Burlington T-2037,NC,27215,Licensed
"451 Huffman Mill Road, University Commons",ALAMANCE,BURLINGTON,Burlington Mall,NC,27215,Company Owned
"1447 ""A"" University Drive",ALAMANCE,BURLINGTON,University Commons,NC,27215,Company Owned
400 E US Highway 19 E Byp,YANCEY,BURNSVILLE,Ingles-East Burnsville #13,NC,28714,Licensed
1231 Birch St,ONSLOW,CAMP LEJEUNE,Camp Lejeune - Main Exchange,NC,28547,Licensed
1572 Sand Hill Rd,BUNCOMBE,CANDLER,Ingles Candler # 134,NC,28715,Licensed
630 Champion Dr,HAYWOOD,CANTON,Ingles-Canton #55,NC,28716,Licensed
3430 Ten Ten Rd,WAKE,CARY,Harris Teeter Cary 331,NC,27518,Licensed
2080 Kildaire Farm Rd,WAKE,CARY,Harris Teeter Cary #257,NC,27518,Licensed
1151 TRYON VILLAGE DRIVE,WAKE,CARY,Harris Teeter-Cary # 330,NC,27518,Licensed
"8204 Tryon Woods Dr, Suite 120, Northwoods Center",WAKE,CARY,Tryon Village,NC,27518,Company Owned
"1107 Walnut Street, Suite 102, Kildaire Plaza",WAKE,CARY,Cary Towne Center,NC,27511,Company Owned
"1217 Kildaire Farm Road, The Arboretum",WAKE,CARY,Cary Central,NC,27511,Company Owned
"885 Walnut St, Tryon Village",WAKE,CARY,Harris Teeter - Cary #430,NC,27511,Licensed
"204 Crossroads Blvd, Suite 200",WAKE,CARY,Crossroads Blvd & Caitboo Ave,NC,27511,Company Owned
125 Weston Parkway,WAKE,CARY,Weston Parkway,NC,27513,Company Owned
1904 Northwest Maynard Road,WAKE,CARY,Evans Road,NC,27513,Company Owned
270 GRANDE HEIGHTS DR.,WAKE,CARY,Harris Teeter Cary 112,NC,27513,Licensed
7145 O'Kelly Chapel Rd,WAKE,CARY,Harris Teeter - Cary # 236,NC,27519,Licensed
1150 Green Level to Durham Rd,WAKE,CARY,Harris Teeter-Cary #298,NC,27519,Licensed
1015 Parkside Main St,WAKE,CARY,Parkside Towne Center,NC,27519,Company Owned
"7129 O'Kelly Chapel Road, High House Shops",WAKE,CARY,Target Cary T-2784,NC,27519,Licensed
2840 NC Highway 55,WAKE,CARY,High House Road,NC,27519,Company Owned
98 Cornerstone Dr,WAKE,CARY,Harris Teeter-Cary #138,NC,27519,Licensed
230 US 64 E,JACKSON,CASHIERS,Ingles Cashiers # 110,NC,28717,Licensed
101 Manning Dr,ORANGE,CHAPEL HILL,UNC Hospital,NC,27514,Licensed
"104 Ridge Rd, Eastgate Shopping Center",ORANGE,CHAPEL HILL,UNC at Chapel Hill - Rams Head Cent,NC,27514,Licensed
"1800 E Franklin Street, Suite B",ORANGE,CHAPEL HILL,Eastgate - Chapel Hill,NC,27514,Company Owned
2110  S Estes Dr,ORANGE,CHAPEL HILL,Harris Teeter-Chapel Hill #117,NC,27514,Licensed
103 East Franklin Street,ORANGE,CHAPEL HILL,Franklin Street,NC,27514,Company Owned
88 Chatham Downs,ORANGE,CHAPEL HILL,Harris Teeter-Chapel Hill #137,NC,27517,Licensed
116 W. Barbee Chapel Rd,ORANGE,CHAPEL HILL,Harris Teeter - Chapel Hill #120,NC,27517,Licensed
101 S. Tryon Street,MECKLENBURG,CHARLOTTE,101 South Tryon,NC,28280,Company Owned
"9201 University City Blvd, Piper Glen",MECKLENBURG,CHARLOTTE,University of North Carolina Charlo,NC,28223,Licensed
6432 Rea Road,MECKLENBURG,CHARLOTTE,Piper Glen,NC,28277,Company Owned
7922 Rea Road,MECKLENBURG,CHARLOTTE,Stonecrest,NC,28277,Company Owned
7860 Rea Rd,MECKLENBURG,CHARLOTTE,Target Charlotte T-1087,NC,28277,Licensed
10616 Providence Road,MECKLENBURG,CHARLOTTE,Harris Teeter-Charlotte #45,NC,28277,Licensed
"5361 Ballantyne Commons Pkwy, 100",MECKLENBURG,CHARLOTTE,Promenade,NC,28277,Company Owned
15007 John J. Delaney Dr.,MECKLENBURG,CHARLOTTE,Harris Teeter-Charlotte/Ballantyne,NC,28277,Licensed
9870 Rea Rd,MECKLENBURG,CHARLOTTE,Target Charlotte Far South T-2090,NC,28277,Licensed
16625 Lancaster Hwy,MECKLENBURG,CHARLOTTE,Harris Teeter-Charlotte # 317,NC,28277,Licensed
9820-A Rea Road,MECKLENBURG,CHARLOTTE,Blakeney,NC,28277,Company Owned
13855 Conlan Circle,MECKLENBURG,CHARLOTTE,Ballantyne,NC,28277,Company Owned
"4425 Park Road, 100",MECKLENBURG,CHARLOTTE,Park Towne Village,NC,28209,Company Owned
5501 Josh Birmingham Pkwy,MECKLENBURG,CHARLOTTE,CLT E Food Court,NC,28208,Licensed
5501 Josh Birmingham Parkway,MECKLENBURG,CHARLOTTE,CLT - Main C/D Side Bookstore,NC,28208,Licensed
"5501 R C Josh Birmingham Pkwy, The Arbors",MECKLENBURG,CHARLOTTE,CIT - Baggage Claim,NC,28208,Licensed
5501 Josh Birmingham Pkwy,MECKLENBURG,CHARLOTTE,CLT- Main Terminal Pre Security,NC,28208,Licensed
"5501 R C Josh Birmingham Pkwy., Host Marriott/Starbucks Coffee",MECKLENBURG,CHARLOTTE,CIT - Mobile Truck,NC,28208,Licensed
5501 Josh Birmingham Parkway,MECKLENBURG,CHARLOTTE,CLT - Charlotte Main Term Bookstore,NC,28208,Licensed
5501 Josh Birmingham Pkwy,MECKLENBURG,CHARLOTTE,CLT Terminal E,NC,28208,Licensed
"5502 Josh Birmingham Parkway, Gateway Village",MECKLENBURG,CHARLOTTE,CLT - Charlotte C-13-,NC,28208,Licensed
"5501 Josh Birmingham Parkway, Blakeney",MECKLENBURG,CHARLOTTE,"CLT - Term B-Gate 12, Gift/News",NC,28208,Licensed
"5501 Josh Birmingham Parkway, Shops of Ballantyne",MECKLENBURG,CHARLOTTE,CLT - Concourse D/E Connector,NC,28208,Licensed
"3540 Mount Holly-Huntersville Rd, Stonecrest",MECKLENBURG,CHARLOTTE,Harris Teeter - Charlotte #166,NC,28216,Licensed
9841 Northlake Ctr Pkwy,MECKLENBURG,CHARLOTTE,SuperTarget Charlotte North ST-2080,NC,28216,Licensed
"6801 Northlake Mall Dr., #238",MECKLENBURG,CHARLOTTE,Teavana - Northlake Mall,NC,28216,Company Owned
"6801 Northlake Mall Drive, Space K101",MECKLENBURG,CHARLOTTE,Northlake Mall,NC,28216,Company Owned
5434 New Fashion Way,MECKLENBURG,CHARLOTTE,Charlotte Premium Outlet,NC,28278,Company Owned
13000 S Tryon St,MECKLENBURG,CHARLOTTE,Harris Teeter-S Tryon Charlotte #88,NC,28278,Licensed
"13129 S. Tryon St., Suite 100",MECKLENBURG,CHARLOTTE,Hwy 49 & Steelecroft Pkwy,NC,28278,Company Owned
9531 South Blvd,MECKLENBURG,CHARLOTTE,Target Pineville T-762,NC,28273,Licensed
"7819 Forest Pine Drive, Southpark Mall",MECKLENBURG,CHARLOTTE,Arrowood Road,NC,28273,Company Owned
8951-A SOUTH TRYON STREET,MECKLENBURG,CHARLOTTE,Whitehall,NC,28273,Company Owned
12830 Walker Branch Dr,MECKLENBURG,CHARLOTTE,Super Target Charlotte ST-2132,NC,28273,Licensed
14523 CAROWINDS BLVD,MECKLENBURG,CHARLOTTE,Carowinds Amusement Park Main Gate,NC,28273,Licensed
5810 Highland Shoppes Dr,MECKLENBURG,CHARLOTTE,Harris Teeter Charlotte # 122,NC,28269,Licensed
8439 Davis Lake Parkway,MECKLENBURG,CHARLOTTE,Davis Lake Commons,NC,28269,Company Owned
1704 Central Ave,MECKLENBURG,CHARLOTTE,Harris Teeter - Charlotte #401,NC,28205,Licensed
"4400 Sharon Rd., Ste. G31B, Charlotte/Douglas Int'l Airport",MECKLENBURG,CHARLOTTE,Teavana - Southpark Mall,NC,28211,Company Owned
"4450 Randolph Rd. Ste 100, Duke Energy Center",MECKLENBURG,CHARLOTTE,Cotswold Village Shops,NC,28211,Company Owned
"4400 Sharron Road, C7B",MECKLENBURG,CHARLOTTE,South Park Mall,NC,28211,Company Owned
"6701 Morrison Blvd., Park Place Shopping Center",MECKLENBURG,CHARLOTTE,Morrocroft Village - HT,NC,28211,Company Owned
"2121 East Arbors Drive, Suite 110",MECKLENBURG,CHARLOTTE,The Arbors,NC,28262,Company Owned
"9335 North Tryon Street, 104, Northlake Mall",MECKLENBURG,CHARLOTTE,N. Tryon Street & Institute Circle,NC,28262,Company Owned
"1525 W WT Harris Blvd, South Park Mall",MECKLENBURG,CHARLOTTE,Wachovia Bank,NC,28262,Licensed
"8514 University Center Blvd, Davis Lake Commons",MECKLENBURG,CHARLOTTE,Harris-Teeter-Charlotte #258,NC,28262,Licensed
"135 Levine Avenue of the Arts, Suite 140",MECKLENBURG,CHARLOTTE,Duke Energy Center,NC,28202,Company Owned
"800 W Trade St, Ste 140",MECKLENBURG,CHARLOTTE,Gateway Village,NC,28202,Company Owned
"501 S College St, Grand Plaza",MECKLENBURG,CHARLOTTE,Charlotte Convention Center,NC,28202,Licensed
1961 East 7th Street,MECKLENBURG,CHARLOTTE,7th Street,NC,28204,Company Owned
900 Metropolitan Ave,MECKLENBURG,CHARLOTTE,Target Charlotte Midtown T-2244,NC,28204,Licensed
1025 Morehead Medical Drive,MECKLENBURG,CHARLOTTE,Carolinas Medical Kiosk,NC,28204,Company Owned
545 Providence Rd.,MECKLENBURG,CHARLOTTE,Providence Road,NC,28207,Company Owned
"1015 Providence Rd, Host Marriott/Starbucks Coffee",MECKLENBURG,CHARLOTTE,Harris Teeter-Charlotte #412,NC,28207,Licensed
1401 East Boulevard,MECKLENBURG,CHARLOTTE,East Blvd,NC,28203,Company Owned
4821 Berewick Town Center Dr.,MECKLENBURG,CHARLOTTE,Harris Teeter Charlotte # 3,NC,28217,Licensed
"4100 Carmel Road, Suite L",MECKLENBURG,CHARLOTTE,Olde Towne Village,NC,28226,Company Owned
"3333 Pineville Matthews Rd, Morehead Medical Plaza",MECKLENBURG,CHARLOTTE,Harris Teeter Charlotte #30,NC,28226,Licensed
201 South College Street,MECKLENBURG,CHARLOTTE,Charlotte Plaza,NC,28244,Company Owned
"101 N Tryon St, Charlotte/Douglas Int'l Airport",MECKLENBURG,CHARLOTTE,101 North Tyron,NC,28246,Company Owned
9015 Pineville-Matthews Road,MECKLENBURG,PINEVILLE,Carolinas Medical South,NC,28134,Company Owned
"11025 Carolina Place Pkwy, #A-21, Carolina Place Mall",MECKLENBURG,PINEVILLE,Teavana - Carolina Place,NC,28134,Company Owned
"11025 Carolina Place Parkway, A-140",MECKLENBURG,PINEVILLE,Carolina Place Mall,NC,28134,Company Owned
"13024 US Highway 70W, Suite 103",JOHNSTON,CLAYTON,"Clayton, NC",NC,27520,Company Owned
"67 Flowers Crossroads Wy, Walgreens Development",JOHNSTON,CLAYTON,Harris Teeter Clayton #229,NC,27527,Licensed
2785 Lewisville-Clemmons Rd,FORSYTH,CLEMMONS,Clemmons,NC,27012,Company Owned
"7741 Gateway Lane NW, Suite 130",CABARRUS,CONCORD,Speedway Blvd.,NC,28027,Company Owned
9900-Suite 124 Poplar Tent Rd,CABARRUS,CONCORD,Harris Teeter-Concord #190,NC,28027,Licensed
6065 Bayfield Pkwy,CABARRUS,CONCORD,Kannapolis Parkway,NC,28027,Company Owned
"1490 US Highway 29, Concord Mills",CABARRUS,CONCORD,"Concord, Hwy 29",NC,28027,Company Owned
"8111 Concord Mills Blvd, 342",CABARRUS,CONCORD,Concord Mills,NC,28027,Company Owned
6150 Bayfield Pkwy,CABARRUS,CONCORD,SuperTarget Kannapolis ST-2169,NC,28027,Licensed
358 George W Liles Pkwy,CABARRUS,CONCORD,Harris Teeter-Concord #68,NC,28027,Licensed
"19722 One Lake Norman Blvd, Suite 200",MECKLENBURG,CORNELIUS,Lake Norman Blvd.,NC,28031,Company Owned
21720 Catawba Ave,MECKLENBURG,CORNELIUS,Harris Teeter Cornelius # 416,NC,28031,Licensed
19815 N Cove Rd,MECKLENBURG,CORNELIUS,Harris Teeter-Cornelius #179,NC,28031,Licensed
6010 Currituck Clubhouse DR,CURRITUCK,COROLLA,Harris Teeter-Corolla #266,NC,27927,Licensed
517 Centennial Drive,JACKSON,CULLOWHEE,Western Carolina University -Center,NC,28723,Licensed
715 W Trade St.,GASTON,DALLAS,Ingles Dallas # 146,NC,28034,Licensed
"431 Peninsula Drive, Parkwest Crossing",MECKLENBURG,DAVIDSON,Harris Teeter-Davidson # 268,NC,28036,Licensed
4834 NC Hwy 55,DURHAM,DURHAM,"Parkwest Crossing, NC",NC,27713,Company Owned
"6910 Fayetteville Rd., #1305, Imperial Center",DURHAM,DURHAM,Teavana - Streets at Southpoint,NC,27713,Company Owned
"6813 Fayetteville Road, Willowdale Shopping Center",DURHAM,DURHAM,Renaissance Center at South Point,NC,27713,Company Owned
8210 Renaissance Pkwy,DURHAM,DURHAM,Super Target Durham SE ST-2069,NC,27713,Licensed
1125 West North Carolina 54 Hwy,DURHAM,DURHAM,Harris Teeter - Durham #224,NC,27707,Licensed
4201 N Roxboro Street,DURHAM,DURHAM,N. Roxboro & Fairfield,NC,27707,Company Owned
"4037 Chapel Hill Blvd, Streets at Southpoint",DURHAM,DURHAM,Super Target-Durham ST-1872,NC,27707,Licensed
"5319 New Hope Commons Dr, Suite 105, Renaissance at Southpoint",DURHAM,DURHAM,Mount Moriah,NC,27707,Company Owned
4010 Durham Chapel Hill Boulevard,DURHAM,DURHAM,Durham Chapel Hill & Tower Blvd,NC,27707,Company Owned
1817 Martin Luther King Pkwy,DURHAM,DURHAM,Harris Teeter 172 Durham,NC,27707,Licensed
3457 Hillsborough Road,DURHAM,DURHAM,Kroger - Durham #332,NC,27705,Licensed
2301 Erwin Rd,DURHAM,DURHAM,Duke University Hospital,NC,27705,Licensed
3801 Guess Road,DURHAM,DURHAM,Guess Road,NC,27705,Company Owned
2107 Hillborough Rd,DURHAM,DURHAM,Harris Teeter-Durham #394,NC,27705,Licensed
1119 Slater Rd,DURHAM,DURHAM,Imperial Corners,NC,27703,Company Owned
"691 S Hughes Blvd, Cross Creek Mall",PASQUOTANK,ELIZABETH CITY,Farm Fresh-Elizabeth City #469,NC,27909,Licensed
"565 Cross Creek Mall, Suite 100",CUMBERLAND,FAYETTEVILLE,Cross Creek,NC,28303,Company Owned
2800 Raeford Rd,CUMBERLAND,FAYETTEVILLE,Harris Teeter-Fayetteville #25,NC,28303,Licensed
"5400 Ramsey St, The Shoppes at Walter Reed",CUMBERLAND,FAYETTEVILLE,Methodist University - Berns Studen,NC,28311,Licensed
4401 N Ramsey Street,CUMBERLAND,FAYETTEVILLE,N Ramsey St,NC,28311,Company Owned
1445 Walter Reed Road,CUMBERLAND,FAYETTEVILLE,Walter Reed Road,NC,28304,Company Owned
"2056 Skibo Rd, Ramsey Commons",CUMBERLAND,FAYETTEVILLE,Target Fayetteville T-755,NC,28314,Licensed
3050 Traemoor Village Dr,CUMBERLAND,FAYETTEVILLE,Harris Teeter-Fayetteville #393,NC,28306,Licensed
220 Highland Lake Rd,HENDERSON,FLAT ROCK,Ingles-Flat Rock #177,NC,28731,Licensed
2901 Hendersonville Rd,HENDERSON,FLETCHER,Ingles-Fletcher #43,NC,28732,Licensed
765 S Church St,RUTHERFORD,FOREST CITY,Ingles Forest City - #27,NC,28043,Licensed
"3571 Butner Road, Bldg 8-5476A",CUMBERLAND,FORT BRAGG,Fort Bragg - North Post,NC,28310,Licensed
1017 Canopy LN,CUMBERLAND,FORT BRAGG,Fort Bragg South Post,NC,28310,Licensed
Building 42171 Reilly Road,CUMBERLAND,FORT BRAGG,Fort Bragg - Mini Mall,NC,28307,Licensed
1380 North Main St,WAKE,FUQUAY VARINA,Hwy 401 & Purfoy Rd,NC,27526,Company Owned
2700 Timber Dr,WAKE,GARNER,Target Garner T-1104,NC,27529,Licensed
"Rt. 401 & Ten Ten, White Oak Cabella's",WAKE,GARNER,Harris Teeter-Garner #283,NC,27529,Licensed
180 Cabela Drive,WAKE,GARNER,Hwy 70 & Jones Sausage Rd,NC,27529,Company Owned
425 Cox Rd,GASTON,GASTONIA,Target Gastonia T-2565,NC,28054,Licensed
3350 Robinwood Dr,GASTON,GASTONIA,Harris Teeter Gastonia # 281,NC,28054,Licensed
420 Cox Road,GASTON,GASTONIA,Cox Rd & I-85,NC,28054,Company Owned
1204 Sunburst Dr,WAYNE,GOLDSBORO,Target Goldsboro T-964,NC,27534,Licensed
"2116-A Wayne Memorial Dr, Berkley Mall",WAYNE,GOLDSBORO,Wayne Memorial Dr & Hwy 70,NC,27534,Company Owned
603 North Berkeley Blvd,WAYNE,GOLDSBORO,Goldsboro,NC,27534,Company Owned
4010 Battleground Ave,GUILFORD,GREENSBORO,Harris Teeter Greensboro 280,NC,27410,Licensed
3330 W. Friendly Ave.,GUILFORD,GREENSBORO,Friendly - HT,NC,27410,Company Owned
4016 Battleground Ave,GUILFORD,GREENSBORO,Battlegrnd Ave & Horse Pen Crk Rd,NC,27410,Company Owned
"1562 Highwoods Blvd, Suite C",GUILFORD,GREENSBORO,Jefferson Village,NC,27410,Company Owned
"1628 Highwoods Blvd, Elmsley Square Shopping Center",GUILFORD,GREENSBORO,Target Greensboro West T-2108,NC,27410,Licensed
"3326 W. Friendly Ave., #137, Colonial Shoppes at Quaker Shopping Cntr",GUILFORD,GREENSBORO,Teavana - Friendly Center,NC,27410,Company Owned
5607 W Friendly Ave,GUILFORD,GREENSBORO,Guilford College,NC,27410,Company Owned
"701 Frances King St, Four Seasons Town Centre Mall",GUILFORD,GREENSBORO,Harris Teeter Greensboro #33,NC,27410,Licensed
"1212 Bridford Pkwy, Jefferson Village",GUILFORD,GREENSBORO,Target Greensboro South T-1078,NC,27407,Licensed
5710 W Gate City Blvd,GUILFORD,GREENSBORO,Harris Teeter Greensboro # 64,NC,27407,Licensed
"400 Four Seasons Town Centre, Space #1K5-A, Patriots Place Shopping Center",GUILFORD,GREENSBORO,Four Seasons Towne Centre,NC,27407,Company Owned
"3711 Elmsley Street, Suite 108, Friendly Center",GUILFORD,GREENSBORO,South Elm & I-85,NC,27406,Company Owned
401 Pisguah Church Rd,GUILFORD,GREENSBORO,Harris Teeter-Greensboro #91,NC,27455,Licensed
505 Pisgah Church Road,GUILFORD,GREENSBORO,Patriots Place,NC,27455,Company Owned
1000 Ted Johnson Pkwy,GUILFORD,GREENSBORO,GSO - North Concourse,NC,27409,Licensed
1000 Ted Johnson Pkwy,GUILFORD,GREENSBORO,GSO - South Concourse,NC,27409,Licensed
1603 Battleground Avenue,GUILFORD,GREENSBORO,Shops on Battleground,NC,27408,Company Owned
2639 Lawndale Dr,GUILFORD,GREENSBORO,Harris Teeter - Greensboro #347,NC,27408,Licensed
1601 E Market St,GUILFORD,GREENSBORO,North Carolina A & T State Univ,NC,27411,Licensed
"E 5th Str, Stanton Square Shopping Center",PITT,GREENVILLE,East Carolina University Joyner Lib,NC,27858,Licensed
100 East 10th Street,PITT,GREENVILLE,East Carolina University,NC,27858,Company Owned
"1001 East 5th Street, Jones Hall on College Hill Dr.",PITT,GREENVILLE,ECU Mobile Truck,NC,27858,Licensed
"100 Founders Dr, La Promenade",PITT,GREENVILLE,East Carolina University - Wright P,NC,27858,Licensed
518-B Greenville Blvd. SE,PITT,GREENVILLE,Greenville,NC,27858,Company Owned
"2120 E Firetower Rd, Suite 101",PITT,GREENVILLE,Harris Teeter-Greenville #287,NC,27858,Licensed
"2205 W. Arlington Blvd., Suite A",PITT,GREENVILLE,Stanton Square,NC,27834,Company Owned
3040 EVANS ST,PITT,GREENVILLE,Harris Teeter-Greenville NC #362,NC,27834,Licensed
"4100 Humber Dr, Unit 100",PITT,WINTERVILLE,Firetower Road and S. Memorial,NC,28590,Company Owned
12190 University City Blvd,CABARRUS,HARRISBURG,Harris Teeter Harrisburg # 92,NC,28075,Licensed
230 Highway 64 E,CLAY,HAYESVILLE,Ingles Hayesville # 116,NC,28904,Licensed
1980 Asheville Hwy,HENDERSON,HENDERSONVILLE,Ingles-Hendersonville #11,NC,28792,Licensed
3643 Howard Gap Rd,HENDERSON,HENDERSONVILLE,Ingles-Hendersonville #179,NC,28792,Licensed
103 Mitchelle Drive,HENDERSON,HENDERSONVILLE,Four Seasons Boulevard & I-26,NC,28792,Company Owned
"1342 2nd St., NE",CATAWBA,HICKORY,Hickory North,NC,28601,Company Owned
1186 Lenoir Rhyne Blvd,CATAWBA,HICKORY,Lenoir Rhyne Blvd & I-40,NC,28602,Company Owned
"1910 Catawba Valley Blvd SE, Family Video",CATAWBA,HICKORY,Target Hickory T-1181,NC,28602,Licensed
"2101 N. Main Street, Suite 103",GUILFORD,HIGH POINT,"High Point, NC",NC,27262,Company Owned
5th Street,GUILFORD,HIGH POINT,High Point University-Cottrell Hall,NC,27262,Licensed
265 Eastchester Dr,GUILFORD,HIGH POINT,Harris Teeter - High Point #341,NC,27262,Licensed
3875 John Gordon Lane,GUILFORD,HIGH POINT,Shoppes at Deep River,NC,27265,Company Owned
5277 Sunset Lake Rd,WAKE,HOLLY SPRINGS,Harris Teeter-Holly Springs #118,NC,27540,Licensed
185 Grand Hill Place,WAKE,HOLLY SPRINGS,Hwy 55 & New Hill Road,NC,27540,Company Owned
100 Grand Hill Place,WAKE,HOLLY SPRINGS,Target Holly Springs T-2785,NC,27540,Licensed
"7715 Regency Lake Dr, Rosedale Commons",MECKLENBURG,HUNTERSVILLE,Teeter-Huntersville #272,NC,28078,Licensed
"9832 Gilead Road, Space D101, Birkdale Village",MECKLENBURG,HUNTERSVILLE,Rosedale,NC,28078,Company Owned
16846B Birkdale Commons Pkwy,MECKLENBURG,HUNTERSVILLE,Birkdale,NC,28078,Company Owned
9801 Sam Furr Rd,MECKLENBURG,HUNTERSVILLE,Target Huntersville T-966,NC,28078,Licensed
"9932 Knockando Lane, Sun Valley Shopping Center",MECKLENBURG,HUNTERSVILLE,Sam Furr Rd & Hwy 115,NC,28078,Company Owned
"6701 Old Monroe Rd, Suite A",UNION,INDIAN TRAIL,Sun Valley,NC,28079,Company Owned
1395D Western Blvd,ONSLOW,JACKSONVILLE,Target Jacksonville T-1226,NC,28546,Licensed
"1654 Western Boulevard, Lot 2, Jacksonville Mall",ONSLOW,JACKSONVILLE,Western & Gateway,NC,28546,Company Owned
370 Western Boulevard,ONSLOW,JACKSONVILLE,Jacksonville,NC,28546,Company Owned
5635 Riverdale Dr,GUILFORD,JAMESTOWN,Furnitureland South,NC,27282,Licensed
1024 S Main St,FORSYTH,KERNERSVILLE,Target Kernersville T-2134,NC,27284,Licensed
"1020 S. Main Street, 1A",FORSYTH,KERNERSVILLE,1020 S. Main Street,NC,27284,Company Owned
971 S Main St,FORSYTH,KERNERSVILLE,Harris Teeter-Kernersville #250,NC,27284,Licensed
2012 South Croatan Highway,DARE,KILL DEVIL HILLS,Harris Teeter Kill Devils Hills # 1,NC,27948,Licensed
"2111 Shelby Rd, Marketplace at Southern Shores",CLEVELAND,KINGS MOUNTAIN,Ingles Kings Mountain # 147,NC,28086,Licensed
5597-A North Croatan Highway,DARE,KITTY HAWK,Kitty Hawk,NC,27949,Company Owned
1000 Shoppes at Midway Dr,WAKE,KNIGHTDALE,Target Knightdale T-2111,NC,27545,Licensed
212 Hinton Oaks Boulevard,WAKE,KNIGHTDALE,Knightdale,NC,27545,Company Owned
2021 Olde Regent Way,BRUNSWICK,LELAND,Harris Teeter - Leland #225,NC,28451,Licensed
2130 E Main St,LINCOLN,LINCOLNTON,Ingles Lincolnton #148,NC,28092,Licensed
5084 Kahn Drive,ROBESON,LUMBERTON,I-95 & Fayetteville Rd - Lumberton,NC,28358,Company Owned
1900 Matthews Township Pkwy,MECKLENBURG,MATTHEWS,Target Charlotte SE T-918,NC,28105,Licensed
1811 Matthews Township Pkwy,MECKLENBURG,MATTHEWS,Harris Teeter-Matthews #157,NC,28105,Licensed
"2233 Matthews Township Parkway, Suite A",MECKLENBURG,MATTHEWS,Sycamore Commons,NC,28105,Company Owned
13639 Providence Rd,UNION,MATTHEWS,Harris Teeter - Matthews #343,NC,28104,Licensed
"6350 Weddington Monroe Rd, Independence Mall",UNION,MATTHEWS,Target Wesley Chapel T-2395,NC,28104,Licensed
3890 Brundage Lane,ALAMANCE,MEBANE,Mebane Oaks Rd & I-85,NC,27302,Company Owned
3338 Boylston Hwy,HENDERSON,MILLS RIVER,Ingles Mills River # 133,NC,28759,Licensed
7036 Brighton Park Dr,MECKLENBURG,CHARLOTTE,Harris Teeter Mint Hill # 474,NC,28227,Licensed
2937 Monroe Way,UNION,MONROE,Hwy 74 & Windmere - Monroe,NC,28110,Company Owned
2901 W Hwy 74,UNION,MONROE,Target Monroe  T-2074,NC,28110,Licensed
"118 Argus Lane, Mount Mourne Springs",IREDELL,MOORESVILLE,Harris Teeter - Mooresville #274,NC,28117,Licensed
235 Medical Park Road,IREDELL,MOORESVILLE,Mount Mourne,NC,28117,Company Owned
134 Town Center Drive,IREDELL,MOORESVILLE,Harris Teeter-Mooresville #99,NC,28117,Licensed
"489 River Hwy, Suite A",IREDELL,MOORESVILLE,River Highway & Rolling Hill Road,NC,28117,Company Owned
"594 River Hwy, Crystal Coast Plaza",IREDELL,MOORESVILLE,Super Target Mooresville ST-1505,NC,28117,Licensed
"5186 Hwy 70, Unit A",CARTERET,MOREHEAD CITY,"Morehead City, NC",NC,28557,Company Owned
114 Carbon City Rd,BURKE,MORGANTON,Ingles-Morganton #120,NC,28655,Licensed
"3001 Market Center Dr, A",WAKE,MORRISVILLE,Target Morrisville T-2721,NC,27560,Licensed
"3037 Village Market Place, 190, 919-",WAKE,MORRISVILLE,Park West Village,NC,27560,Company Owned
"2400 John Brantley Blvd, Davis Commons",WAKE,MORRISVILLE,RDU T1 Post-Security,NC,27560,Licensed
3608-400 Davis Drive,WAKE,MORRISVILLE,Grace Park,NC,27560,Company Owned
4093 Davis Drive,WAKE,MORRISVILLE,Harris Teeter @ Morrisville # 104,NC,27560,Licensed
2400 John Brantley Blvd,WAKE,MORRISVILLE,RDU - T2 Temp,NC,27560,Licensed
2400 W Terminal Blvd,WAKE,MORRISVILLE,RDU T1 Baggage Claim,NC,27560,Licensed
2060 Hwy 19,CHEROKEE,MURPHY,Ingles Murphy - #25,NC,28906,Licensed
777 Casino Parkway,CHEROKEE,MURPHY,Cherokee River Valley Hotel and Cas,NC,28906,Licensed
3410 Dr Martin Luther King Blvd,CRAVEN,NEW BERN,Target New Bern T-1015,NC,28562,Licensed
3182 Martin Luther King Jr Blvd,CRAVEN,NEW BERN,New Bern Mall,NC,28562,Company Owned
2019 S Glenburnie Road,CRAVEN,NEW BERN,Harris Teeter - New Bern #221,NC,28562,Licensed
"Hwy. 70 & Thurmann St., Northlake Mall",CRAVEN,NEW BERN,Harris Teeter New Bern # 139,NC,28562,Licensed
1 University Rd,ROBESON,PEMBROKE,UNC Pembroke,NC,28372,Licensed
"305 Ivey Ln, Carolina Place",MOORE,PINEHURST,Harris Teeter Pinehurst # 80,NC,28374,Licensed
"7498 Creedmor Road, Crabtree Valley Mall",WAKE,RALEIGH,Stonehenge,NC,27613,Company Owned
"4325 Glenwood Ave., #1068",WAKE,RALEIGH,Teavana - Crabtree Valley Mall,NC,27612,Company Owned
"2051 W Millbrook Rd, North Hills Mall",WAKE,RALEIGH,Harris Teeter - Raleigh #319,NC,27612,Licensed
3101-305 Edwards Mill Road,WAKE,RALEIGH,Old Raleigh Village,NC,27612,Company Owned
"6282 Glenwood Avenue, Alexander Place",WAKE,RALEIGH,Pleasant Valley Promenade,NC,27612,Company Owned
"4325 Glenwood Avenue, 2119",WAKE,RALEIGH,Crabtree,NC,27612,Company Owned
5100 Capital Blvd,WAKE,RALEIGH,Capital & Spring Forest,NC,27616,Company Owned
"5959 Triangle Town Boulevard, Unit CL1136",WAKE,RALEIGH,Triangle Towne Mall,NC,27616,Company Owned
7900 Old Wake Forest Rd,WAKE,RALEIGH,Super Target Raleigh ST-1826,NC,27616,Licensed
"5959 Triangle Town Blvd., #2080",WAKE,RALEIGH,Teavana - Triangle Town Center,NC,27616,Company Owned
"500 Fayetteville St. Mall, Triangle Town Center",WAKE,RALEIGH,Marriott Downtown Raleigh,NC,27601,Licensed
609 W Peace St,WAKE,RALEIGH,Glenwood & Peace,NC,27605,Company Owned
500 Oberlin Road,WAKE,RALEIGH,Cameron Village - HT,NC,27605,Company Owned
"6176 Falls of Neuse Road, LL01A, Falls Pointe Shopping Center",WAKE,RALEIGH,Falls of Neuse @ Spring Forest Rd.,NC,27609,Company Owned
"4421 Six Forks Road, 116, Cameron Village Shopping Center",WAKE,RALEIGH,North Hills Plaza,NC,27609,Company Owned
"4160 Main Street, Suite 105",WAKE,RALEIGH,North Hills Center,NC,27609,Company Owned
4191 The Circle at N Hills St.,WAKE,RALEIGH,Target Raleigh  Central T-1892,NC,27609,Licensed
"9630 Falls of the Neuse Road, 101, North Hills Plaza",WAKE,RALEIGH,Village at Falls Pointe,NC,27615,Company Owned
"9441 Strickland Road, Unit R06, Capital Boulevard Shoppes",WAKE,RALEIGH,Six Forks & Strickland,NC,27615,Company Owned
1025 Airside Dr,WAKE,RALEIGH,RDU Terminal C Presecurity,NC,27623,Licensed
"1025 Airside Dr, Triangle Town Center",WAKE,RALEIGH,RDU Terminal C Central Atrium,NC,27623,Licensed
"7854 Alexander Promenade Pl., Bldg. H, Ste. 1, Lake Boone Shopping Center",WAKE,RALEIGH,Alexander Place,NC,27617,Company Owned
3800 Lake Boone Trail,WAKE,RALEIGH,Lake Boone Trail,NC,27607,Company Owned
1610 Cates Ave,WAKE,RALEIGH,Talley Student Center,NC,27607,Licensed
"10760 Wakefield Commons Dr., Ste. 109, New Bern Commons",WAKE,RALEIGH,Wakefield Commons,NC,27614,Company Owned
4421 New Bern Avenue,WAKE,RALEIGH,New Bern Commons,NC,27610,Company Owned
"3023 Capital Blvd., Premier Landing Shopping Center",WAKE,RALEIGH,Capital Blvd.,NC,27604,Company Owned
298 Premier Blvd.,HALIFAX,ROANOKE RAPIDS,Roanoke Rapids,NC,27870,Company Owned
"731 Sutters Creek Blvd, Towne Creek Commons",NASH,ROCKY MOUNT,Target Rocky Mount T-962,NC,27804,Licensed
916 East Innes Street,ROWAN,SALISBURY,Towne Creek Commons,NC,28144,Company Owned
2905 Horner Boulevard,LEE,SANFORD,S. Horner Blvd & Rosser Rd.,NC,27332,Company Owned
1650 W Dixon Blvd,CLEVELAND,SHELBY,Ingles Shelby 12,NC,28152,Licensed
"110 S. Equity Drive, Statesville",JOHNSTON,SMITHFIELD,Hwy 70 & Smithfield Crossing,NC,27577,Company Owned
1501 East Broad Street,IREDELL,STATESVILLE,Statesville,NC,28625,Company Owned
2299 US Hwy 70,BUNCOMBE,SWANNANOA,Ingles Swannanoa # 34,NC,28778,Licensed
3638 Rogers Rd,WAKE,WAKE FOREST,Harris Teeter Wake Forest # 43,NC,27587,Licensed
12000 Retail Dr,WAKE,WAKE FOREST,Super Target Wake Forest ST-1504,NC,27587,Licensed
"9700 Rea Rd, Ste A",UNION,WAXHAW,Tom Short Rd & Rea Rd,NC,28173,Company Owned
8157 Kesington Drive,UNION,WAXHAW,Harris Teeter-Waxhaw #182,NC,28173,Licensed
201 Barber Blvd,HAYWOOD,WAYNESVILLE,Ingles-Waynesville #23,NC,28786,Licensed
140 Weaver Blvd,BUNCOMBE,WEAVERVILLE,Ingles - Weaverville #180,NC,28787,Licensed
3502 Oleander Drive,NEW HANOVER,WILMINGTON,Oleander and Independence,NC,28403,Company Owned
"820 S College Rd, Landfall Shopping Center",NEW HANOVER,WILMINGTON,Harris Teeter - Wilmington #158,NC,28403,Licensed
"1705 Eastwood Rd, Ste 5E2",NEW HANOVER,WILMINGTON,Landfall,NC,28403,Company Owned
1940 Eastwood Rd,NEW HANOVER,WILMINGTON,Harris Teeter-Wilmington # 301,NC,28403,Licensed
"311 S College Dr, Ste 100",NEW HANOVER,WILMINGTON,S College Dr & New Centre Dr,NC,28403,Company Owned
2800 S College Rd,NEW HANOVER,WILMINGTON,Harris Teeter - Wilmington #441,NC,28412,Licensed
"5920 Carolina Beach Road, Best Buy",NEW HANOVER,WILMINGTON,Harris Teeter-Wilmington # 96,NC,28412,Licensed
6805 Parker Farm Rd,NEW HANOVER,WILMINGTON,Harris Teeter-Wilmington #210,NC,28405,Licensed
1005 International Drive,NEW HANOVER,WILMINGTON,Mayfaire Towne Centre,NC,28405,Company Owned
"3401 Raleigh Rd, Suite 101",WILSON,WILSON,"Wilson, NC",NC,27896,Company Owned
3401 Raleigh Rd Pkwy W,WILSON,WILSON,Target Wilson T-2168,NC,27896,Licensed
2281 Cloverdale Ave,FORSYTH,WINSTON SALEM,Harris Teeter Winston Salem 216,NC,27103,Licensed
"3320 Silas Creek Pkwy, #136, DBA Fazolis",FORSYTH,WINSTON SALEM,Teavana - Hanes Mall,NC,27103,Company Owned
"263 Harvey St, Hanes Mall",FORSYTH,WINSTON SALEM,Stratford Road & Ricks Drive,NC,27103,Company Owned
"3320  Silas Creek Parkway, PK44",FORSYTH,WINSTON SALEM,Hanes Mall Kiosk,NC,27103,Company Owned
"605 Jonestown Road, Hanes Mall",FORSYTH,WINSTON SALEM,Jonestown Rd.,NC,27103,Company Owned
2015 Frontis Plaza Boulevard,FORSYTH,WINSTON SALEM,Hanes Mall Blvd.,NC,27103,Company Owned
"110 Oakwood Drive, Space U122, N/A",FORSYTH,WINSTON SALEM,Stratford Road,NC,27103,Company Owned
1 Medical Center Blvd,FORSYTH,WINSTON SALEM,Wake Forest Unv Bap Med - Winst-Sal,NC,27103,Licensed
"1834 Wake Forest Rd, Hanes Mall",FORSYTH,WINSTON SALEM,Wake Forest University North Campus,NC,27104,Licensed
5980 University Parkway,FORSYTH,WINSTON SALEM,University Parkway,NC,27105,Company Owned
5420 University Pkwy,FORSYTH,WINSTON SALEM,Target Winston-Salem North T-1077,NC,27105,Licensed
2835 Reynolda Rd,FORSYTH,WINSTON SALEM,Harris Teeter Winston Salem # 346,NC,27106,Licensed
3327 Robinhood Road,FORSYTH,WINSTON SALEM,Mt. Tabor Place,NC,27106,Company Owned
2898 Reynolda Road,FORSYTH,WINSTON SALEM,Reynolda Road,NC,27106,Company Owned
1834 Wake Forest Rd,FORSYTH,WINSTON SALEM,Wake Forest University Z. Smith Rey,NC,27109,Licensed
,DAVIE,ADVANCE,,NC,27006,
,HERTFORD,AHOSKIE,,NC,27910,
,ALAMANCE,ALAMANCE,,NC,27201,
,STANLY,ALBEMARLE,,NC,28001,
,STANLY,ALBEMARLE,,NC,28002,
,DUPLIN,ALBERTSON,,NC,28508,
,BUNCOMBE,ALEXANDER,,NC,28701,
,GASTON,ALEXIS,,NC,28006,
,PAMLICO,ALLIANCE,,NC,28509,
,SWAIN,ALMOND,,NC,28702,
,ALAMANCE,ALTAMAHAW,,NC,27202,
,CHEROKEE,ANDREWS,,NC,28901,
,HARNETT,ANGIER,,NC,27501,
,ANSON,ANSONVILLE,,NC,28007,
,WAKE,APEX,,NC,27539,
,PAMLICO,ARAPAHOE,,NC,28510,
,SURRY,ARARAT,,NC,27007,
,BRUNSWICK,ASH,,NC,28420,
,RANDOLPH,ASHEBORO,,NC,27203,
,RANDOLPH,ASHEBORO,,NC,27204,
,RANDOLPH,ASHEBORO,,NC,27205,
,BUNCOMBE,ASHEVILLE,,NC,28802,
,BUNCOMBE,ASHEVILLE,,NC,28810,
,BUNCOMBE,ASHEVILLE,,NC,28813,
,BUNCOMBE,ASHEVILLE,,NC,28814,
,BUNCOMBE,ASHEVILLE,,NC,28815,
,BUNCOMBE,ASHEVILLE,,NC,28816,
,PENDER,ATKINSON,,NC,28421,
,CARTERET,ATLANTIC,,NC,28511,
,CARTERET,ATLANTIC BEACH,,NC,28512,
,BERTIE,AULANDER,,NC,27805,
,BEAUFORT,AURORA,,NC,27806,
,SAMPSON,AUTRYVILLE,,NC,28318,
,DARE,AVON,,NC,27915,
,PITT,AYDEN,,NC,28513,
,CURRITUCK,AYDLETT,,NC,27916,
,STANLY,BADIN,,NC,28009,
,DURHAM,BAHAMA,,NC,27503,
,NASH,BAILEY,,NC,27807,
,MITCHELL,BAKERSVILLE,,NC,28705,
,JACKSON,BALSAM,,NC,28707,
,TRANSYLVANIA,BALSAM GROVE,,NC,28708,
,AVERY,BANNER ELK,,NC,28604,
,CURRITUCK,BARCO,,NC,27917,
,IREDELL,BARIUM SPRINGS,,NC,28010,
,BUNCOMBE,BARNARDSVILLE,,NC,28709,
,ROBESON,BARNESVILLE,,NC,28319,
,HENDERSON,BAT CAVE,,NC,28710,
,BEAUFORT,BATH,,NC,27808,
,EDGECOMBE,BATTLEBORO,,NC,27809,
,PAMLICO,BAYBORO,,NC,28515,
,CHATHAM,BEAR CREEK,,NC,27207,
,CARTERET,BEAUFORT,,NC,28516,
,FORSYTH,BELEWS CREEK,,NC,27009,
,BEAUFORT,BELHAVEN,,NC,27810,
,PITT,BELLARTHUR,,NC,27811,
,GASTON,BELMONT,,NC,28012,
,PERQUIMANS,BELVIDERE,,NC,27919,
,CHATHAM,BENNETT,,NC,27208,
,JOHNSTON,BENSON,,NC,27504,
,GASTON,BESSEMER CITY,,NC,28016,
,FORSYTH,BETHANIA,,NC,27010,
,PITT,BETHEL,,NC,27812,
,DUPLIN,BEULAVILLE,,NC,28518,
,MONTGOMERY,BISCOE,,NC,27209,
,WILSON,BLACK CREEK,,NC,27813,
,BLADEN,BLADENBORO,,NC,28320,
,CASWELL,BLANCH,,NC,27212,
,BEAUFORT,BLOUNTS CREEK,,NC,27814,
,WATAUGA,BLOWING ROCK,,NC,28605,
,CLEVELAND,BOILING SPRINGS,,NC,28017,
,BRUNSWICK,BOLIVIA,,NC,28422,
,COLUMBUS,BOLTON,,NC,28423,
,CHATHAM,BONLEE,,NC,27213,
,WILKES,BOOMER,,NC,28606,
,WATAUGA,BOONE,,NC,28608,
,YADKIN,BOONVILLE,,NC,27011,
,RUTHERFORD,BOSTIC,,NC,28018,
,CLAY,BRASSTOWN,,NC,28902,
,CRAVEN,BRIDGETON,,NC,28519,
,LEE,BROADWAY,,NC,27505,
,GUILFORD,BROWNS SUMMIT,,NC,27214,
,COLUMBUS,BRUNSWICK,,NC,28424,
,SWAIN,BRYSON CITY,,NC,28713,
,GRANVILLE,BULLOCK,,NC,27507,
,FRANKLIN,BUNN,,NC,27508,
,HARNETT,BUNNLEVEL,,NC,28323,
,PENDER,BURGAW,,NC,28425,
,ALAMANCE,BURLINGTON,,NC,27216,
,ALAMANCE,BURLINGTON,,NC,27217,
,GRANVILLE,BUTNER,,NC,27509,
,DARE,BUXTON,,NC,27920,
,BRUNSWICK,CALABASH,,NC,28467,
,DUPLIN,CALYPSO,,NC,28325,
,CAMDEN,CAMDEN,,NC,27921,
,HARNETT,CAMERON,,NC,28326,
,ONSLOW,CAMP LEJEUNE,,NC,28542,
,MONTGOMERY,CANDOR,,NC,27229,
,RUTHERFORD,CAROLEEN,,NC,28019,
,NEW HANOVER,CAROLINA BEACH,,NC,28428,
,ORANGE,CARRBORO,,NC,27510,
,MOORE,CARTHAGE,,NC,28327,
,WAKE,CARY,,NC,27512,
,CLEVELAND,CASAR,,NC,28020,
,NASH,CASTALIA,,NC,27816,
,NEW HANOVER,CASTLE HAYNE,,NC,28429,
,CATAWBA,CATAWBA,,NC,28609,
,RANDOLPH,CEDAR FALLS,,NC,27230,
,ORANGE,CEDAR GROVE,,NC,27231,
,CARTERET,CEDAR ISLAND,,NC,28520,
,TRANSYLVANIA,CEDAR MOUNTAIN,,NC,28718,
,COLUMBUS,CERRO GORDO,,NC,28430,
,COLUMBUS,CHADBOURN,,NC,28431,
,ORANGE,CHAPEL HILL,,NC,27515,
,ORANGE,CHAPEL HILL,,NC,27516,
,ORANGE,CHAPEL HILL,,NC,27599,
,MECKLENBURG,CHARLOTTE,,NC,28201,
,MECKLENBURG,CHARLOTTE,,NC,28206,
,MECKLENBURG,CHARLOTTE,,NC,28210,
,MECKLENBURG,CHARLOTTE,,NC,28212,
,MECKLENBURG,CHARLOTTE,,NC,28213,
,MECKLENBURG,CHARLOTTE,,NC,28214,
,MECKLENBURG,CHARLOTTE,,NC,28215,
,MECKLENBURG,CHARLOTTE,,NC,28218,
,MECKLENBURG,CHARLOTTE,,NC,28219,
,MECKLENBURG,CHARLOTTE,,NC,28220,
,MECKLENBURG,CHARLOTTE,,NC,28221,
,MECKLENBURG,CHARLOTTE,,NC,28222,
,MECKLENBURG,CHARLOTTE,,NC,28224,
,MECKLENBURG,CHARLOTTE,,NC,28228,
,MECKLENBURG,CHARLOTTE,,NC,28229,
,MECKLENBURG,CHARLOTTE,,NC,28230,
,MECKLENBURG,CHARLOTTE,,NC,28231,
,MECKLENBURG,CHARLOTTE,,NC,28232,
,MECKLENBURG,CHARLOTTE,,NC,28233,
,MECKLENBURG,CHARLOTTE,,NC,28234,
,MECKLENBURG,CHARLOTTE,,NC,28235,
,MECKLENBURG,CHARLOTTE,,NC,28236,
,MECKLENBURG,CHARLOTTE,,NC,28237,
,MECKLENBURG,CHARLOTTE,,NC,28241,
,MECKLENBURG,CHARLOTTE,,NC,28247,
,MECKLENBURG,CHARLOTTE,,NC,28253,
,MECKLENBURG,CHARLOTTE,,NC,28254,
,MECKLENBURG,CHARLOTTE,,NC,28255,
,MECKLENBURG,CHARLOTTE,,NC,28256,
,MECKLENBURG,CHARLOTTE,,NC,28260,
,MECKLENBURG,CHARLOTTE,,NC,28263,
,MECKLENBURG,CHARLOTTE,,NC,28265,
,MECKLENBURG,CHARLOTTE,,NC,28266,
,MECKLENBURG,CHARLOTTE,,NC,28270,
,MECKLENBURG,CHARLOTTE,,NC,28271,
,MECKLENBURG,CHARLOTTE,,NC,28272,
,MECKLENBURG,CHARLOTTE,,NC,28274,
,MECKLENBURG,CHARLOTTE,,NC,28281,
,MECKLENBURG,CHARLOTTE,,NC,28282,
,MECKLENBURG,CHARLOTTE,,NC,28284,
,MECKLENBURG,CHARLOTTE,,NC,28285,
,MECKLENBURG,CHARLOTTE,,NC,28287,
,MECKLENBURG,CHARLOTTE,,NC,28288,
,MECKLENBURG,CHARLOTTE,,NC,28297,
,MECKLENBURG,CHARLOTTE,,NC,28299,
,SWAIN,CHEROKEE,,NC,28719,
,CRAVEN,CHERRY POINT,,NC,28533,
,GASTON,CHERRYVILLE,,NC,28021,
,RUTHERFORD,CHIMNEY ROCK,,NC,28720,
,ROWAN,CHINA GROVE,,NC,28023,
,DUPLIN,CHINQUAPIN,,NC,28521,
,BEAUFORT,CHOCOWINITY,,NC,27817,
,CATAWBA,CLAREMONT,,NC,28610,
,COLUMBUS,CLARENDON,,NC,28432,
,BLADEN,CLARKTON,,NC,28433,
,JOHNSTON,CLAYTON,,NC,27528,
,ROWAN,CLEVELAND,,NC,27013,
,RUTHERFORD,CLIFFSIDE,,NC,28024,
,GUILFORD,CLIMAX,,NC,27233,
,SAMPSON,CLINTON,,NC,28328,
,SAMPSON,CLINTON,,NC,28329,
,HAYWOOD,CLYDE,,NC,28721,
,HARNETT,COATS,,NC,27521,
,HERTFORD,COFIELD,,NC,27922,
,CURRITUCK,COINJOCK,,NC,27923,
,BERTIE,COLERAIN,,NC,27924,
,GUILFORD,COLFAX,,NC,27235,
,CALDWELL,COLLETTSVILLE,,NC,28611,
,TYRRELL,COLUMBIA,,NC,27925,
,POLK,COLUMBUS,,NC,28722,
,HERTFORD,COMO,,NC,27818,
,CABARRUS,CONCORD,,NC,28025,
,CABARRUS,CONCORD,,NC,28026,
,EDGECOMBE,CONETOE,,NC,27819,
,BURKE,CONNELLY SPRINGS,,NC,28612,
,CATAWBA,CONOVER,,NC,28613,
,NORTHAMPTON,CONWAY,,NC,27820,
,DAVIE,COOLEEMEE,,NC,27014,
,GATES,CORAPEAKE,,NC,27926,
,RICHMOND,CORDOVA,,NC,28330,
,BLADEN,COUNCIL,,NC,28434,
,CRAVEN,COVE CITY,,NC,28523,
,GASTON,CRAMERTON,,NC,28032,
,GRANVILLE,CREEDMOOR,,NC,27522,
,ASHE,CRESTON,,NC,28615,
,WASHINGTON,CRESWELL,,NC,27928,
,AVERY,CROSSNORE,,NC,28616,
,LINCOLN,CROUSE,,NC,28033,
,ASHE,CRUMPLER,,NC,28617,
,CUMBERLAND,CUMBERLAND,,NC,28331,
,LEE,CUMNOCK,,NC,27237,
,PENDER,CURRIE,,NC,28435,
,CURRITUCK,CURRITUCK,,NC,27929,
,HENDERSON,DANA,,NC,28724,
,STOKES,DANBURY,,NC,27016,
,MECKLENBURG,DAVIDSON,,NC,28035,
,CARTERET,DAVIS,,NC,28524,
,WATAUGA,DEEP GAP,,NC,28618,
,LENOIR,DEEP RUN,,NC,28525,
,COLUMBUS,DELCO,,NC,28436,
,DAVIDSON,DENTON,,NC,27239,
,LINCOLN,DENVER,,NC,28037,
,JACKSON,DILLSBORO,,NC,28725,
,SURRY,DOBSON,,NC,27017,
,CRAVEN,DOVER,,NC,28526,
,BURKE,DREXEL,,NC,28619,
,BLADEN,DUBLIN,,NC,28332,
,WAYNE,DUDLEY,,NC,28333,
,HARNETT,DUNN,,NC,28334,
,HARNETT,DUNN,,NC,28335,
,DURHAM,DURHAM,,NC,27701,
,DURHAM,DURHAM,,NC,27702,
,DURHAM,DURHAM,,NC,27704,
,DURHAM,DURHAM,,NC,27706,
,DURHAM,DURHAM,,NC,27708,
,DURHAM,DURHAM,,NC,27709,
,DURHAM,DURHAM,,NC,27710,
,DURHAM,DURHAM,,NC,27711,
,DURHAM,DURHAM,,NC,27712,
,DURHAM,DURHAM,,NC,27715,
,DURHAM,DURHAM,,NC,27717,
,DURHAM,DURHAM,,NC,27722,
,MOORE,EAGLE SPRINGS,,NC,27242,
,CLEVELAND,EARL,,NC,28038,
,YADKIN,EAST BEND,,NC,27018,
,HENDERSON,EAST FLAT ROCK,,NC,28726,
,ROWAN,EAST SPENCER,,NC,28039,
,ROCKINGHAM,EDEN,,NC,27288,
,ROCKINGHAM,EDEN,,NC,27289,
,CHOWAN,EDENTON,,NC,27932,
,HENDERSON,EDNEYVILLE,,NC,28727,
,BEAUFORT,EDWARD,,NC,27821,
,ORANGE,EFLAND,,NC,27243,
,PASQUOTANK,ELIZABETH CITY,,NC,27906,
,PASQUOTANK,ELIZABETH CITY,,NC,27907,
,BLADEN,ELIZABETHTOWN,,NC,28337,
,AVERY,ELK PARK,,NC,28622,
,SURRY,ELKIN,,NC,28621,
,RUTHERFORD,ELLENBORO,,NC,28040,
,RICHMOND,ELLERBE,,NC,28338,
,WILSON,ELM CITY,,NC,27822,
,ALAMANCE,ELON,,NC,27244,
,CARTERET,EMERALD ISLE,,NC,28594,
,HALIFAX,ENFIELD,,NC,27823,
,HYDE,ENGELHARD,,NC,27824,
,BUNCOMBE,ENKA,,NC,28728,
,ALLEGHANY,ENNICE,,NC,28623,
,CRAVEN,ERNUL,,NC,28527,
,HARNETT,ERWIN,,NC,28339,
,MONTGOMERY,ETHER,,NC,27247,
,HENDERSON,ETOWAH,,NC,28729,
,GATES,EURE,,NC,27935,
,MARTIN,EVERETTS,,NC,27825,
,COLUMBUS,EVERGREEN,,NC,28438,
,COLUMBUS,FAIR BLUFF,,NC,28439,
,HYDE,FAIRFIELD,,NC,27826,
,ROBESON,FAIRMONT,,NC,28340,
,BUNCOMBE,FAIRVIEW,,NC,28730,
,DUPLIN,FAISON,,NC,28341,
,ROWAN,FAITH,,NC,28041,
,CUMBERLAND,FALCON,,NC,28342,
,PITT,FALKLAND,,NC,27827,
,CLEVELAND,FALLSTON,,NC,28042,
,PITT,FARMVILLE,,NC,27828,
,CUMBERLAND,FAYETTEVILLE,,NC,28301,
,CUMBERLAND,FAYETTEVILLE,,NC,28302,
,CUMBERLAND,FAYETTEVILLE,,NC,28305,
,CUMBERLAND,FAYETTEVILLE,,NC,28309,
,CUMBERLAND,FAYETTEVILLE,,NC,28312,
,WILKES,FERGUSON,,NC,28624,
,ASHE,FLEETWOOD,,NC,28626,
,GRAHAM,FONTANA DAM,,NC,28733,
,PITT,FOUNTAIN,,NC,27829,
,JOHNSTON,FOUR OAKS,,NC,27524,
,MACON,FRANKLIN,,NC,28734,
,MACON,FRANKLIN,,NC,28744,
,FRANKLIN,FRANKLINTON,,NC,27525,
,RANDOLPH,FRANKLINVILLE,,NC,27248,
,WAYNE,FREMONT,,NC,27830,
,DARE,FRISCO,,NC,27936,
,SAMPSON,GARLAND,,NC,28441,
,NORTHAMPTON,GARYSBURG,,NC,27831,
,NORTHAMPTON,GASTON,,NC,27832,
,GASTON,GASTONIA,,NC,28052,
,GASTON,GASTONIA,,NC,28053,
,GASTON,GASTONIA,,NC,28055,
,GASTON,GASTONIA,,NC,28056,
,GATES,GATES,,NC,27937,
,GATES,GATESVILLE,,NC,27938,
,STOKES,GERMANTON,,NC,27019,
,HENDERSON,GERTON,,NC,28735,
,SCOTLAND,GIBSON,,NC,28343,
,GUILFORD,GIBSONVILLE,,NC,27249,
,ALLEGHANY,GLADE VALLEY,,NC,28627,
,BURKE,GLEN ALPINE,,NC,28628,
,ASHE,GLENDALE SPRINGS,,NC,28629,
,JACKSON,GLENVILLE,,NC,28736,
,CARTERET,GLOUCESTER,,NC,28528,
,SAMPSON,GODWIN,,NC,28344,
,ROWAN,GOLD HILL,,NC,28071,
,WAYNE,GOLDSBORO,,NC,27530,
,WAYNE,GOLDSBORO,,NC,27531,
,WAYNE,GOLDSBORO,,NC,27532,
,WAYNE,GOLDSBORO,,NC,27533,
,CHATHAM,GOLDSTON,,NC,27252,
,ALAMANCE,GRAHAM,,NC,27253,
,CURRITUCK,GRANDY,,NC,27939,
,CALDWELL,GRANITE FALLS,,NC,28630,
,ROWAN,GRANITE QUARRY,,NC,28072,
,PAMLICO,GRANTSBORO,,NC,28529,
,ASHE,GRASSY CREEK,,NC,28631,
,YANCEY,GREEN MOUNTAIN,,NC,28740,
,GUILFORD,GREENSBORO,,NC,27401,
,GUILFORD,GREENSBORO,,NC,27402,
,GUILFORD,GREENSBORO,,NC,27403,
,GUILFORD,GREENSBORO,,NC,27404,
,GUILFORD,GREENSBORO,,NC,27405,
,GUILFORD,GREENSBORO,,NC,27412,
,GUILFORD,GREENSBORO,,NC,27415,
,GUILFORD,GREENSBORO,,NC,27416,
,GUILFORD,GREENSBORO,,NC,27417,
,GUILFORD,GREENSBORO,,NC,27419,
,GUILFORD,GREENSBORO,,NC,27420,
,GUILFORD,GREENSBORO,,NC,27425,
,GUILFORD,GREENSBORO,,NC,27427,
,GUILFORD,GREENSBORO,,NC,27429,
,GUILFORD,GREENSBORO,,NC,27435,
,GUILFORD,GREENSBORO,,NC,27438,
,GUILFORD,GREENSBORO,,NC,27495,
,GUILFORD,GREENSBORO,,NC,27497,
,PITT,GREENVILLE,,NC,27833,
,PITT,GREENVILLE,,NC,27835,
,PITT,GREENVILLE,,NC,27836,
,PITT,GRIFTON,,NC,28530,
,PITT,GRIMESLAND,,NC,27837,
,CLEVELAND,GROVER,,NC,28073,
,CHATHAM,GULF,,NC,27256,
,HALIFAX,HALIFAX,,NC,27839,
,COLUMBUS,HALLSBORO,,NC,28442,
,MARTIN,HAMILTON,,NC,27840,
,RICHMOND,HAMLET,,NC,28345,
,PENDER,HAMPSTEAD,,NC,28443,
,YADKIN,HAMPTONVILLE,,NC,27020,
,CURRITUCK,HARBINGER,,NC,27941,
,CARTERET,HARKERS ISLAND,,NC,28531,
,IREDELL,HARMONY,,NC,28634,
,SAMPSON,HARRELLS,,NC,28444,
,HERTFORD,HARRELLSVILLE,,NC,27942,
,RUTHERFORD,HARRIS,,NC,28074,
,MARTIN,HASSELL,,NC,27841,
,DARE,HATTERAS,,NC,27943,
,CRAVEN,HAVELOCK,,NC,28532,
,ALAMANCE,HAW RIVER,,NC,27258,
,WILKES,HAYS,,NC,28635,
,HAYWOOD,HAZELWOOD,,NC,28738,
,VANCE,HENDERSON,,NC,27536,
,VANCE,HENDERSON,,NC,27537,
,HENDERSON,HENDERSONVILLE,,NC,28739,
,HENDERSON,HENDERSONVILLE,,NC,28791,
,HENDERSON,HENDERSONVILLE,,NC,28793,
,NORTHAMPTON,HENRICO,,NC,27842,
,RUTHERFORD,HENRIETTA,,NC,28076,
,PERQUIMANS,HERTFORD,,NC,27930,
,PERQUIMANS,HERTFORD,,NC,27944,
,CATAWBA,HICKORY,,NC,28603,
,ALEXANDER,HIDDENITE,,NC,28636,
,GUILFORD,HIGH POINT,,NC,27260,
,GUILFORD,HIGH POINT,,NC,27261,
,GUILFORD,HIGH POINT,,NC,27263,
,GUILFORD,HIGH POINT,,NC,27264,
,GASTON,HIGH SHOALS,,NC,28077,
,MOORE,HIGHFALLS,,NC,27259,
,MACON,HIGHLANDS,,NC,28741,
,BURKE,HILDEBRAN,,NC,28637,
,ORANGE,HILLSBOROUGH,,NC,27278,
,GATES,HOBBSVILLE,,NC,27946,
,HALIFAX,HOBGOOD,,NC,27843,
,PAMLICO,HOBUCKEN,,NC,28537,
,RICHMOND,HOFFMAN,,NC,28347,
,HALIFAX,HOLLISTER,,NC,27844,
,ONSLOW,HOLLY RIDGE,,NC,28445,
,GREENE,HOOKERTON,,NC,28538,
,CUMBERLAND,HOPE MILLS,,NC,28348,
,HENDERSON,HORSE SHOE,,NC,28742,
,MADISON,HOT SPRINGS,,NC,28743,
,ONSLOW,HUBERT,,NC,28539,
,CALDWELL,HUDSON,,NC,28638,
,MECKLENBURG,HUNTERSVILLE,,NC,28070,
,PERSON,HURDLE MILLS,,NC,27541,
,BURKE,ICARD,,NC,28666,
,LINCOLN,IRON STATION,,NC,28080,
,SAMPSON,IVANHOE,,NC,28447,
,NORTHAMPTON,JACKSON,,NC,27845,
,MOORE,JACKSON SPRINGS,,NC,27281,
,ONSLOW,JACKSONVILLE,,NC,28540,
,ONSLOW,JACKSONVILLE,,NC,28541,
,MARTIN,JAMESVILLE,,NC,27846,
,CURRITUCK,JARVISBURG,,NC,27947,
,ASHE,JEFFERSON,,NC,28640,
,BURKE,JONAS RIDGE,,NC,28641,
,YADKIN,JONESVILLE,,NC,28642,
,GUILFORD,JULIAN,,NC,27283,
,CABARRUS,KANNAPOLIS,,NC,28081,
,CABARRUS,KANNAPOLIS,,NC,28082,
,CABARRUS,KANNAPOLIS,,NC,28083,
,BERTIE,KELFORD,,NC,27847,
,BLADEN,KELLY,,NC,28448,
,DUPLIN,KENANSVILLE,,NC,28349,
,JOHNSTON,KENLY,,NC,27542,
,FORSYTH,KERNERSVILLE,,NC,27285,
,STOKES,KING,,NC,27021,
,LENOIR,KINSTON,,NC,28501,
,LENOIR,KINSTON,,NC,28502,
,LENOIR,KINSTON,,NC,28503,
,LENOIR,KINSTON,,NC,28504,
,HARNETT,KIPLING,,NC,27543,
,VANCE,KITTRELL,,NC,27544,
,CURRITUCK,KNOTTS ISLAND,,NC,27950,
,NEW HANOVER,KURE BEACH,,NC,28449,
,LENOIR,LA GRANGE,,NC,28551,
,HAYWOOD,LAKE JUNALUSKA,,NC,28745,
,RUTHERFORD,LAKE LURE,,NC,28746,
,TRANSYLVANIA,LAKE TOXAWAY,,NC,28747,
,COLUMBUS,LAKE WACCAMAW,,NC,28450,
,MOORE,LAKEVIEW,,NC,28350,
,ROWAN,LANDIS,,NC,28088,
,ASHE,LANSING,,NC,28643,
,CLEVELAND,LATTIMORE,,NC,28089,
,SCOTLAND,LAUREL HILL,,NC,28351,
,ALLEGHANY,LAUREL SPRINGS,,NC,28644,
,SCOTLAND,LAURINBURG,,NC,28352,
,SCOTLAND,LAURINBURG,,NC,28353,
,CLEVELAND,LAWNDALE,,NC,28090,
,STOKES,LAWSONVILLE,,NC,27022,
,CASWELL,LEASBURG,,NC,27291,
,BUNCOMBE,LEICESTER,,NC,28748,
,LEE,LEMON SPRINGS,,NC,28355,
,CALDWELL,LENOIR,,NC,28633,
,CALDWELL,LENOIR,,NC,28645,
,BERTIE,LEWISTON WOODVILLE,,NC,27849,
,FORSYTH,LEWISVILLE,,NC,27023,
,DAVIDSON,LEXINGTON,,NC,27292,
,DAVIDSON,LEXINGTON,,NC,27293,
,DAVIDSON,LEXINGTON,,NC,27295,
,RANDOLPH,LIBERTY,,NC,27298,
,ANSON,LILESVILLE,,NC,28091,
,HARNETT,LILLINGTON,,NC,27546,
,LINCOLN,LINCOLNTON,,NC,28093,
,CUMBERLAND,LINDEN,,NC,28356,
,AVERY,LINVILLE,,NC,28646,
,BURKE,LINVILLE FALLS,,NC,28647,
,DAVIDSON,LINWOOD,,NC,27299,
,MCDOWELL,LITTLE SWITZERLAND,,NC,28749,
,HALIFAX,LITTLETON,,NC,27850,
,STANLY,LOCUST,,NC,28097,
,BRUNSWICK,LONGWOOD,,NC,28452,
,FRANKLIN,LOUISBURG,,NC,27549,
,GASTON,LOWELL,,NC,28098,
,SURRY,LOWGAP,,NC,27024,
,PAMLICO,LOWLAND,,NC,28552,
,WILSON,LUCAMA,,NC,27851,
,ROBESON,LUMBER BRIDGE,,NC,28357,
,ROBESON,LUMBERTON,,NC,28359,
,ROBESON,LUMBERTON,,NC,28360,
,POLK,LYNN,,NC,28750,
,EDGECOMBE,MACCLESFIELD,,NC,27852,
,WARREN,MACON,,NC,27551,
,ROCKINGHAM,MADISON,,NC,27025,
,HAYWOOD,MAGGIE VALLEY,,NC,28751,
,DUPLIN,MAGNOLIA,,NC,28453,
,CATAWBA,MAIDEN,,NC,28650,
,HARNETT,MAMERS,,NC,27552,
,DARE,MANNS HARBOR,,NC,27953,
,VANCE,MANSON,,NC,27553,
,DARE,MANTEO,,NC,27954,
,CURRITUCK,MAPLE,,NC,27956,
,PENDER,MAPLE HILL,,NC,28454,
,CHEROKEE,MARBLE,,NC,28905,
,NORTHAMPTON,MARGARETTSVILLE,,NC,27853,
,ROBESON,MARIETTA,,NC,28362,
,MCDOWELL,MARION,,NC,28752,
,MADISON,MARS HILL,,NC,28754,
,MADISON,MARSHALL,,NC,28753,
,CARTERET,MARSHALLBERG,,NC,28553,
,UNION,MARSHVILLE,,NC,28103,
,RICHMOND,MARSTON,,NC,28363,
,MECKLENBURG,MATTHEWS,,NC,28106,
,GREENE,MAURY,,NC,28554,
,ROBESON,MAXTON,,NC,28364,
,ROCKINGHAM,MAYODAN,,NC,27027,
,JONES,MAYSVILLE,,NC,28555,
,GASTON,MC ADENVILLE,,NC,28101,
,ANSON,MC FARLAN,,NC,28102,
,WILKES,MC GRADY,,NC,28649,
,GUILFORD,MC LEANSVILLE,,NC,27301,
,ONSLOW,MCCUTCHEON FIELD,,NC,28545,
,PAMLICO,MERRITT,,NC,28556,
,BERTIE,MERRY HILL,,NC,27957,
,YANCEY,MICAVILLE,,NC,28755,
,JOHNSTON,MICRO,,NC,27555,
,VANCE,MIDDLEBURG,,NC,27556,
,NASH,MIDDLESEX,,NC,27557,
,CABARRUS,MIDLAND,,NC,28107,
,ONSLOW,MIDWAY PARK,,NC,28544,
,POLK,MILL SPRING,,NC,28756,
,WILKES,MILLERS CREEK,,NC,28651,
,CASWELL,MILTON,,NC,27305,
,UNION,MINERAL SPRINGS,,NC,28108,
,AVERY,MINNEAPOLIS,,NC,28652,
,STANLY,MISENHEIMER,,NC,28109,
,DAVIE,MOCKSVILLE,,NC,27028,
,CHATHAM,MONCURE,,NC,27559,
,UNION,MONROE,,NC,28111,
,UNION,MONROE,,NC,28112,
,AVERY,MONTEZUMA,,NC,28653,
,BUNCOMBE,MONTREAT,,NC,28757,
,CLEVELAND,MOORESBORO,,NC,28114,
,IREDELL,MOORESVILLE,,NC,28115,
,WILKES,MORAVIAN FALLS,,NC,28654,
,BURKE,MORGANTON,,NC,28680,
,ANSON,MORVEN,,NC,28119,
,SURRY,MOUNT AIRY,,NC,27030,
,MONTGOMERY,MOUNT GILEAD,,NC,27306,
,GASTON,MOUNT HOLLY,,NC,28120,
,IREDELL,MOUNT MOURNE,,NC,28123,
,WAYNE,MOUNT OLIVE,,NC,28365,
,CABARRUS,MOUNT PLEASANT,,NC,28124,
,ROWAN,MOUNT ULLA,,NC,28125,
,HENDERSON,MOUNTAIN HOME,,NC,28758,
,CURRITUCK,MOYOCK,,NC,27958,
,HERTFORD,MURFREESBORO,,NC,27855,
,DARE,NAGS HEAD,,NC,27959,
,COLUMBUS,NAKINA,,NC,28455,
,HENDERSON,NAPLES,,NC,28760,
,NASH,NASHVILLE,,NC,27856,
,MCDOWELL,NEBO,,NC,28761,
,CRAVEN,NEW BERN,,NC,28560,
,CRAVEN,NEW BERN,,NC,28561,
,CRAVEN,NEW BERN,,NC,28563,
,CRAVEN,NEW BERN,,NC,28564,
,WAKE,NEW HILL,,NC,27562,
,STANLY,NEW LONDON,,NC,28127,
,MECKLENBURG,NEWELL,,NC,28126,
,AVERY,NEWLAND,,NC,28657,
,CARTERET,NEWPORT,,NC,28570,
,CATAWBA,NEWTON,,NC,28658,
,SAMPSON,NEWTON GROVE,,NC,28366,
,WARREN,NORLINA,,NC,27563,
,RICHMOND,NORMAN,,NC,28367,
,WILKES,NORTH WILKESBORO,,NC,28656,
,WILKES,NORTH WILKESBORO,,NC,28659,
,STANLY,NORWOOD,,NC,28128,
,MARTIN,OAK CITY,,NC,27857,
,BRUNSWICK,OAK ISLAND,,NC,28465,
,GUILFORD,OAK RIDGE,,NC,27310,
,STANLY,OAKBORO,,NC,28129,
,BRUNSWICK,OCEAN ISLE BEACH,,NC,28469,
,HYDE,OCRACOKE,,NC,27960,
,MCDOWELL,OLD FORT,,NC,28762,
,IREDELL,OLIN,,NC,28660,
,HARNETT,OLIVIA,,NC,28368,
,PAMLICO,ORIENTAL,,NC,28571,
,ROBESON,ORRUM,,NC,28369,
,MACON,OTTO,,NC,28763,
,GRANVILLE,OXFORD,,NC,27565,
,BEAUFORT,PANTEGO,,NC,27860,
,ROBESON,PARKTON,,NC,28371,
,CALDWELL,PATTERSON,,NC,28661,
,MECKLENBURG,PAW CREEK,,NC,28130,
,ANSON,PEACHLAND,,NC,28133,
,CASWELL,PELHAM,,NC,27311,
,NORTHAMPTON,PENDLETON,,NC,27862,
,MITCHELL,PENLAND,,NC,28765,
,TRANSYLVANIA,PENROSE,,NC,28766,
,FORSYTH,PFAFFTOWN,,NC,27040,
,WAYNE,PIKEVILLE,,NC,27863,
,SURRY,PILOT MOUNTAIN,,NC,27041,
,STOKES,PINE HALL,,NC,27042,
,JOHNSTON,PINE LEVEL,,NC,27568,
,MOORE,PINEBLUFF,,NC,28373,
,MOORE,PINEHURST,,NC,28370,
,AVERY,PINEOLA,,NC,28662,
,EDGECOMBE,PINETOPS,,NC,27864,
,BEAUFORT,PINETOWN,,NC,27865,
,ALLEGHANY,PINEY CREEK,,NC,28663,
,LENOIR,PINK HILL,,NC,28572,
,STOKES,PINNACLE,,NC,27043,
,TRANSYLVANIA,PISGAH FOREST,,NC,28768,
,CHATHAM,PITTSBORO,,NC,27312,
,GUILFORD,PLEASANT GARDEN,,NC,27313,
,NORTHAMPTON,PLEASANT HILL,,NC,27866,
,AVERY,PLUMTREE,,NC,28664,
,WASHINGTON,PLYMOUTH,,NC,27962,
,CURRITUCK,POINT HARBOR,,NC,27964,
,ANSON,POLKTON,,NC,28135,
,CLEVELAND,POLKVILLE,,NC,28136,
,JONES,POLLOCKSVILLE,,NC,28573,
,CUMBERLAND,POPE ARMY AIRFIELD,,NC,28308,
,CURRITUCK,POPLAR BRANCH,,NC,27965,
,NORTHAMPTON,POTECASI,,NC,27867,
,CURRITUCK,POWELLS POINT,,NC,27966,
,BERTIE,POWELLSVILLE,,NC,27967,
,JOHNSTON,PRINCETON,,NC,27569,
,ROBESON,PROCTORVILLE,,NC,28375,
,CASWELL,PROSPECT HILL,,NC,27314,
,CASWELL,PROVIDENCE,,NC,27315,
,WILKES,PURLEAR,,NC,28665,
,HOKE,RAEFORD,,NC,28376,
,WAKE,RALEIGH,,NC,27602,
,WAKE,RALEIGH,,NC,27603,
,WAKE,RALEIGH,,NC,27606,
,WAKE,RALEIGH,,NC,27608,
,WAKE,RALEIGH,,NC,27611,
,WAKE,RALEIGH,,NC,27619,
,WAKE,RALEIGH,,NC,27620,
,WAKE,RALEIGH,,NC,27622,
,WAKE,RALEIGH,,NC,27624,
,WAKE,RALEIGH,,NC,27625,
,WAKE,RALEIGH,,NC,27627,
,WAKE,RALEIGH,,NC,27628,
,WAKE,RALEIGH,,NC,27629,
,WAKE,RALEIGH,,NC,27635,
,WAKE,RALEIGH,,NC,27636,
,WAKE,RALEIGH,,NC,27650,
,WAKE,RALEIGH,,NC,27656,
,WAKE,RALEIGH,,NC,27658,
,WAKE,RALEIGH,,NC,27661,
,WAKE,RALEIGH,,NC,27668,
,WAKE,RALEIGH,,NC,27675,
,WAKE,RALEIGH,,NC,27676,
,WAKE,RALEIGH,,NC,27695,
,WAKE,RALEIGH,,NC,27697,
,WAKE,RALEIGH,,NC,27699,
,RANDOLPH,RAMSEUR,,NC,27316,
,RANDOLPH,RANDLEMAN,,NC,27317,
,NASH,RED OAK,,NC,27868,
,ROBESON,RED SPRINGS,,NC,28377,
,ROCKINGHAM,REIDSVILLE,,NC,27320,
,ROCKINGHAM,REIDSVILLE,,NC,27323,
,ROBESON,REX,,NC,28378,
,CALDWELL,RHODHISS,,NC,28667,
,NORTHAMPTON,RICH SQUARE,,NC,27869,
,STANLY,RICHFIELD,,NC,28137,
,ONSLOW,RICHLANDS,,NC,28574,
,BUNCOMBE,RIDGECREST,,NC,28770,
,WARREN,RIDGEWAY,,NC,27570,
,COLUMBUS,RIEGELWOOD,,NC,28456,
,ALLEGHANY,ROARING GAP,,NC,28668,
,WILKES,ROARING RIVER,,NC,28669,
,MOORE,ROBBINS,,NC,27325,
,GRAHAM,ROBBINSVILLE,,NC,28771,
,MARTIN,ROBERSONVILLE,,NC,27871,
,RICHMOND,ROCKINGHAM,,NC,28379,
,RICHMOND,ROCKINGHAM,,NC,28380,
,ROWAN,ROCKWELL,,NC,28138,
,EDGECOMBE,ROCKY MOUNT,,NC,27801,
,EDGECOMBE,ROCKY MOUNT,,NC,27802,
,NASH,ROCKY MOUNT,,NC,27803,
,PENDER,ROCKY POINT,,NC,28457,
,DARE,RODANTHE,,NC,27968,
,WAKE,ROLESVILLE,,NC,27571,
,WILKES,RONDA,,NC,28670,
,WASHINGTON,ROPER,,NC,27970,
,DUPLIN,ROSE HILL,,NC,28458,
,SAMPSON,ROSEBORO,,NC,28382,
,TRANSYLVANIA,ROSMAN,,NC,28772,
,DURHAM,ROUGEMONT,,NC,27572,
,ROBESON,ROWLAND,,NC,28383,
,PERSON,ROXBORO,,NC,27573,
,PERSON,ROXBORO,,NC,27574,
,BERTIE,ROXOBEL,,NC,27872,
,ROCKINGHAM,RUFFIN,,NC,27326,
,FORSYTH,RURAL HALL,,NC,27045,
,FORSYTH,RURAL HALL,,NC,27094,
,BURKE,RUTHERFORD COLLEGE,,NC,28671,
,RUTHERFORD,RUTHERFORDTON,,NC,28139,
,ROBESON,SAINT PAULS,,NC,28384,
,SAMPSON,SALEMBURG,,NC,28385,
,ROWAN,SALISBURY,,NC,28145,
,ROWAN,SALISBURY,,NC,28146,
,ROWAN,SALISBURY,,NC,28147,
,CARTERET,SALTER PATH,,NC,28575,
,POLK,SALUDA,,NC,28773,
,DARE,SALVO,,NC,27972,
,STOKES,SANDY RIDGE,,NC,27046,
,LEE,SANFORD,,NC,27330,
,LEE,SANFORD,,NC,27331,
,TRANSYLVANIA,SAPPHIRE,,NC,28774,
,WILSON,SARATOGA,,NC,27873,
,ALAMANCE,SAXAPAHAW,,NC,27340,
,MACON,SCALY MOUNTAIN,,NC,28775,
,HALIFAX,SCOTLAND NECK,,NC,27874,
,IREDELL,SCOTTS,,NC,28699,
,ASHE,SCOTTVILLE,,NC,28672,
,HYDE,SCRANTON,,NC,27875,
,NORTHAMPTON,SEABOARD,,NC,27876,
,RANDOLPH,SEAGROVE,,NC,27341,
,CARTERET,SEALEVEL,,NC,28577,
,GUILFORD,SEDALIA,,NC,27342,
,JOHNSTON,SELMA,,NC,27576,
,PERSON,SEMORA,,NC,27343,
,WAYNE,SEVEN SPRINGS,,NC,28578,
,NORTHAMPTON,SEVERN,,NC,27877,
,BRUNSWICK,SHALLOTTE,,NC,28459,
,BRUNSWICK,SHALLOTTE,,NC,28470,
,ROBESON,SHANNON,,NC,28386,
,NASH,SHARPSBURG,,NC,27878,
,CURRITUCK,SHAWBORO,,NC,27973,
,CLEVELAND,SHELBY,,NC,28150,
,CLEVELAND,SHELBY,,NC,28151,
,CATAWBA,SHERRILLS FORD,,NC,28673,
,CAMDEN,SHILOH,,NC,27974,
,CHATHAM,SILER CITY,,NC,27344,
,SURRY,SILOAM,,NC,27047,
,PITT,SIMPSON,,NC,27879,
,WILSON,SIMS,,NC,27880,
,BUNCOMBE,SKYLAND,,NC,28776,
,CARTERET,SMYRNA,,NC,28579,
,ONSLOW,SNEADS FERRY,,NC,28460,
,ALAMANCE,SNOW CAMP,,NC,27349,
,GREENE,SNOW HILL,,NC,28580,
,RANDOLPH,SOPHIA,,NC,27350,
,CAMDEN,SOUTH MILLS,,NC,27976,
,MOORE,SOUTHERN PINES,,NC,28387,
,MOORE,SOUTHERN PINES,,NC,28388,
,DAVIDSON,SOUTHMONT,,NC,27351,
,BRUNSWICK,SOUTHPORT,,NC,28461,
,ALLEGHANY,SPARTA,,NC,28675,
,EDGECOMBE,SPEED,,NC,27881,
,ROWAN,SPENCER,,NC,28159,
,RUTHERFORD,SPINDALE,,NC,28160,
,NASH,SPRING HOPE,,NC,27882,
,CUMBERLAND,SPRING LAKE,,NC,28390,
,MITCHELL,SPRUCE PINE,,NC,28777,
,CARTERET,STACY,,NC,28581,
,RANDOLPH,STALEY,,NC,27355,
,STANLY,STANFIELD,,NC,28163,
,GASTON,STANLEY,,NC,28164,
,WILSON,STANTONSBURG,,NC,27883,
,MONTGOMERY,STAR,,NC,27356,
,SURRY,STATE ROAD,,NC,28676,
,IREDELL,STATESVILLE,,NC,28677,
,IREDELL,STATESVILLE,,NC,28687,
,CUMBERLAND,STEDMAN,,NC,28391,
,CARTERET,STELLA,,NC,28582,
,GRANVILLE,STEM,,NC,27581,
,PITT,STOKES,,NC,27884,
,GUILFORD,STOKESDALE,,NC,27357,
,ROCKINGHAM,STONEVILLE,,NC,27048,
,PAMLICO,STONEWALL,,NC,28583,
,ALEXANDER,STONY POINT,,NC,28678,
,GRANVILLE,STOVALL,,NC,27582,
,DARE,STUMPY POINT,,NC,27978,
,WATAUGA,SUGAR GROVE,,NC,28679,
,GUILFORD,SUMMERFIELD,,NC,27358,
,GATES,SUNBURY,,NC,27979,
,BRUNSWICK,SUNSET BEACH,,NC,28468,
,BRUNSWICK,SUPPLY,,NC,28462,
,HYDE,SWANQUARTER,,NC,27885,
,ONSLOW,SWANSBORO,,NC,28584,
,ALAMANCE,SWEPSONVILLE,,NC,27359,
,JACKSON,SYLVA,,NC,28779,
,COLUMBUS,TABOR CITY,,NC,28463,
,BLADEN,TAR HEEL,,NC,28392,
,ONSLOW,TARAWA TERRACE,,NC,28543,
,EDGECOMBE,TARBORO,,NC,27886,
,ALEXANDER,TAYLORSVILLE,,NC,28681,
,DUPLIN,TEACHEY,,NC,28464,
,CATAWBA,TERRELL,,NC,28682,
,DAVIDSON,THOMASVILLE,,NC,27360,
,DAVIDSON,THOMASVILLE,,NC,27361,
,WILKES,THURMOND,,NC,28683,
,HALIFAX,TILLERY,,NC,27887,
,PERSON,TIMBERLAKE,,NC,27583,
,FORSYTH,TOBACCOVILLE,,NC,27050,
,ASHE,TODD,,NC,28684,
,CHEROKEE,TOPTON,,NC,28781,
,VANCE,TOWNSVILLE,,NC,27584,
,WILKES,TRAPHILL,,NC,28685,
,JONES,TRENTON,,NC,28585,
,RANDOLPH,TRINITY,,NC,27370,
,IREDELL,TROUTMAN,,NC,28166,
,MONTGOMERY,TROY,,NC,27371,
,POLK,TRYON,,NC,28782,
,JACKSON,TUCKASEGEE,,NC,28783,
,SAMPSON,TURKEY,,NC,28393,
,HENDERSON,TUXEDO,,NC,28784,
,CHOWAN,TYNER,,NC,27980,
,IREDELL,UNION GROVE,,NC,28689,
,RUTHERFORD,UNION MILLS,,NC,28167,
,BURKE,VALDESE,,NC,28690,
,LINCOLN,VALE,,NC,28168,
,WATAUGA,VALLE CRUCIS,,NC,28691,
,CRAVEN,VANCEBORO,,NC,28586,
,PAMLICO,VANDEMERE,,NC,28587,
,MOORE,VASS,,NC,28394,
,WARREN,VAUGHAN,,NC,27586,
,WATAUGA,VILAS,,NC,28692,
,CLEVELAND,WACO,,NC,28169,
,CUMBERLAND,WADE,,NC,28395,
,ANSON,WADESBORO,,NC,28170,
,SCOTLAND,WAGRAM,,NC,28396,
,WAKE,WAKE FOREST,,NC,27588,
,FORSYTH,WALKERTOWN,,NC,27051,
,DUPLIN,WALLACE,,NC,28466,
,DAVIDSON,WALLBURG,,NC,27373,
,STOKES,WALNUT COVE,,NC,27052,
,GREENE,WALSTONBURG,,NC,27888,
,DARE,WANCHESE,,NC,27981,
,CLAY,WARNE,,NC,28909,
,ASHE,WARRENSVILLE,,NC,28693,
,WARREN,WARRENTON,,NC,27589,
,DUPLIN,WARSAW,,NC,28398,
,BEAUFORT,WASHINGTON,,NC,27889,
,DARE,WAVES,,NC,27982,
,HAYWOOD,WAYNESVILLE,,NC,28785,
,JACKSON,WEBSTER,,NC,28788,
,DAVIDSON,WELCOME,,NC,27374,
,HALIFAX,WELDON,,NC,27890,
,WAKE,WENDELL,,NC,27591,
,ROCKINGHAM,WENTWORTH,,NC,27375,
,MOORE,WEST END,,NC,27376,
,ASHE,WEST JEFFERSON,,NC,28694,
,SURRY,WESTFIELD,,NC,27053,
,NASH,WHITAKERS,,NC,27891,
,BLADEN,WHITE OAK,,NC,28399,
,COLUMBUS,WHITEVILLE,,NC,28472,
,GUILFORD,WHITSETT,,NC,27377,
,JACKSON,WHITTIER,,NC,28789,
,WILKES,WILKESBORO,,NC,28697,
,PENDER,WILLARD,,NC,28478,
,MARTIN,WILLIAMSTON,,NC,27892,
,CARTERET,WILLISTON,,NC,28589,
,WAKE,WILLOW SPRING,,NC,27592,
,NEW HANOVER,WILMINGTON,,NC,28401,
,NEW HANOVER,WILMINGTON,,NC,28402,
,NEW HANOVER,WILMINGTON,,NC,28404,
,NEW HANOVER,WILMINGTON,,NC,28406,
,NEW HANOVER,WILMINGTON,,NC,28407,
,NEW HANOVER,WILMINGTON,,NC,28408,
,NEW HANOVER,WILMINGTON,,NC,28409,
,NEW HANOVER,WILMINGTON,,NC,28411,
,WILSON,WILSON,,NC,27893,
,WILSON,WILSON,,NC,27894,
,WILSON,WILSON,,NC,27895,
,JOHNSTON,WILSONS MILLS,,NC,27593,
,BERTIE,WINDSOR,,NC,27983,
,PERQUIMANS,WINFALL,,NC,27985,
,UNION,WINGATE,,NC,28174,
,BRUNSWICK,WINNABOW,,NC,28479,
,FORSYTH,WINSTON SALEM,,NC,27101,
,FORSYTH,WINSTON SALEM,,NC,27102,
,FORSYTH,WINSTON SALEM,,NC,27107,
,FORSYTH,WINSTON SALEM,,NC,27108,
,FORSYTH,WINSTON SALEM,,NC,27110,
,FORSYTH,WINSTON SALEM,,NC,27113,
,FORSYTH,WINSTON SALEM,,NC,27114,
,FORSYTH,WINSTON SALEM,,NC,27115,
,FORSYTH,WINSTON SALEM,,NC,27116,
,FORSYTH,WINSTON SALEM,,NC,27117,
,FORSYTH,WINSTON SALEM,,NC,27120,
,FORSYTH,WINSTON SALEM,,NC,27127,
,FORSYTH,WINSTON SALEM,,NC,27150,
,FORSYTH,WINSTON SALEM,,NC,27152,
,FORSYTH,WINSTON SALEM,,NC,27155,
,FORSYTH,WINSTON SALEM,,NC,27157,
,FORSYTH,WINSTON SALEM,,NC,27199,
,HERTFORD,WINTON,,NC,27986,
,WARREN,WISE,,NC,27594,
,NORTHAMPTON,WOODLAND,,NC,27897,
,ROWAN,WOODLEAF,,NC,27054,
,NEW HANOVER,WRIGHTSVILLE BEACH,,NC,28480,
,YADKIN,YADKINVILLE,,NC,27055,
,CASWELL,YANCEYVILLE,,NC,27379,
,FRANKLIN,YOUNGSVILLE,,NC,27596,
,WAKE,ZEBULON,,NC,27597,
,WATAUGA,ZIONVILLE,,NC,28698,
,HENDERSON,ZIRCONIA,,NC,28790,
